WORLDVIEW-1 (WV-1)      
1 32060U 07041A   26195.92689359  .00003247  00000+0  13475-3 0  9995
2 32060  97.3905 315.2811 0001499 207.4916 152.6243 15.24556733 47105
WORLDVIEW-2 (WV-2)      
1 35946U 09055A   26195.92856266  .00000037  00000+0  26697-4 0  9996
2 35946  98.4757 269.0005 0005305 130.4608 229.7042 14.37906848879635
WORLDVIEW-3 (WV-3)      
1 40115U 14048A   26195.92764886  .00000407  00000+0  53946-4 0  9992
2 40115  97.8557 270.3766 0001280 156.6966 203.4307 14.85063994646021
